[
    {
        "Altitude(m)": 612502.2228185293,
        "Argument of Periapsis(deg)": 0.0,
        "Eccentricity": 0.0,
        "Inclination(deg)": 60.0,
        "Latitude(deg)": -28.136064422073368,
        "Longitude(deg)": -167.85180846249492,
        "Mean Anomaly(deg)": -32.72730000000001,
        "RAAN(deg)": 310.0,
        "Satellite Name": "Test1 1384",
        "Satellite Number": 1384,
        "Semi-Major Axis(m)": 6980739.136638005,
        "Time(s)": 0
    },
    {
        "Altitude(m)": 612308.670569668,
        "Argument of Periapsis(deg)": 0.00010418945913296404,
        "Eccentricity": 0.0,
        "Inclination(deg)": 60.0,
        "Latitude(deg)": -27.623120407372234,
        "Longitude(deg)": -167.498332780812,
        "Mean Anomaly(deg)": -32.10719385453816,
        "RAAN(deg)": 309.99957995086027,
        "Satellite Name": "Test1 1384",
        "Satellite Number": 1384,
        "Semi-Major Axis(m)": 6980739.136638005,
        "Time(s)": 10
    }
]